CSS (TIANHE)
1 48274U 21035A   26260.91364022  .00017571  00000+0  21435-3 0  9997
2 48274  41.4677 119.0050 0002639 285.8619  74.1929 15.60055942307640
CSS (WENTIAN)
1 53239U 22085A   26260.91364022  .00017571  00000+0  21435-3 0  9990
2 53239  41.4677 119.0050 0002639 285.8619  74.1929 15.60055942288230
ISS (NAUKA)
1 49044U 21066A   26260.88477613  .00006282  00000+0  12142-3 0  9996
2 49044  51.6307 201.3132 0004813 151.3549 208.7705 15.49157682586502
ATLAS CENTAUR 2
1 00694U 63047A   26260.50348113  .00002348  00000+0  27432-3 0  9997
2 00694  30.3545 203.0622 0544923 331.7442  25.4583 14.12700985158768
