ISS (ZARYA)
1 25544U 98067A   26260.88477613  .00006282  00000+0  12142-3 0  9990
2 25544  51.6307 201.3132 0004813 151.3549 208.7705 15.49157682586129
POISK
1 36086U 09060A   26260.88477613  .00006282  00000+0  12142-3 0  9998
2 36086  51.6307 201.3132 0004813 151.3549 208.7705 15.49157682586469
HRC MONOBLOCK CAMERA
1 66052U 98067XR  26260.45172572  .00252534  36243-4  61647-3 0  9998
2 66052  51.6139 159.0797 0004917 163.2457 196.8714 15.95702576 52610
FREGAT DEB
1 49271U 11037PF  26260.91062757  .00014063  00000+0  19654-1 0  9997
2 49271  51.6466  82.5804 0943724 128.7321 240.1795 12.44528997236586
