CSS (TIANHE)
1 48274U 21035A   26260.91364022  .00017571  00000+0  21435-3 0  9997
2 48274  41.4677 119.0050 0002639 285.8619  74.1929 15.60055942307640
CSS (WENTIAN)
1 53239U 22085A   26260.91364022  .00017571  00000+0  21435-3 0  9990
2 53239  41.4677 119.0050 0002639 285.8619  74.1929 15.60055942288230
HRC MONOBLOCK CAMERA
1 66052U 98067XR  26260.45172572  .00252534  36243-4  61647-3 0  9998
2 66052  51.6139 159.0797 0004917 163.2457 196.8714 15.95702576 52610
SZ-21 MODULE
1 66515U 25246C   26259.76719956  .00072988  00000+0  29091-3 0  9993
2 66515  41.4699  93.3629 0011909 311.4469  48.5356 15.85516526 48230
