ISS (ZARYA)
1 25544U 98067A   26260.88477613  .00006282  00000+0  12142-3 0  9990
2 25544  51.6307 201.3132 0004813 151.3549 208.7705 15.49157682586129
POISK
1 36086U 09060A   26260.88477613  .00006282  00000+0  12142-3 0  9998
2 36086  51.6307 201.3132 0004813 151.3549 208.7705 15.49157682586469
CSS (TIANHE)
1 48274U 21035A   26260.91364022  .00017571  00000+0  21435-3 0  9997
2 48274  41.4677 119.0050 0002639 285.8619  74.1929 15.60055942307640
ISS (NAUKA)
1 49044U 21066A   26260.88477613  .00006282  00000+0  12142-3 0  9996
2 49044  51.6307 201.3132 0004813 151.3549 208.7705 15.49157682586502
FREGAT DEB
1 49271U 11037PF  26260.91062757  .00014063  00000+0  19654-1 0  9997
2 49271  51.6466  82.5804 0943724 128.7321 240.1795 12.44528997236586
CSS (WENTIAN)
1 53239U 22085A   26260.91364022  .00017571  00000+0  21435-3 0  9990
2 53239  41.4677 119.0050 0002639 285.8619  74.1929 15.60055942288230
